[{"OBJECT_NAME":"ONEWEB-0654","OBJECT_ID":"2023-029W","EPOCH":"2026-03-09T15:54:35.575200","MEAN_MOTION":13.14502537,"ECCENTRICITY":0.00014454,"INCLINATION":87.8979,"RA_OF_ASC_NODE":309.5678,"ARG_OF_PERICENTER":69.9099,"MEAN_ANOMALY":290.2187,"EPHEMERIS_TYPE":0,"CLASSIFICATION_TYPE":"U","NORAD_CAT_ID":55816,"ELEMENT_SET_NO":999,"REV_AT_EPOCH":14634,"BSTAR":0.00052138754,"MEAN_MOTION_DOT":2.06e-6,"MEAN_MOTION_DDOT":0},{"OBJECT_NAME":"COSMOS 963","OBJECT_ID":"1977-109A","EPOCH":"2026-03-09T20:17:46.784832","MEAN_MOTION":13.17654828,"ECCENTRICITY":0.0014961,"INCLINATION":82.9355,"RA_OF_ASC_NODE":336.2952,"ARG_OF_PERICENTER":328.6045,"MEAN_ANOMALY":100.4048,"EPHEMERIS_TYPE":0,"CLASSIFICATION_TYPE":"U","NORAD_CAT_ID":10491,"ELEMENT_SET_NO":999,"REV_AT_EPOCH":32262,"BSTAR":-8.3269377e-5,"MEAN_MOTION_DOT":-2.0e-7,"MEAN_MOTION_DDOT":0}]
